{"type": "FeatureCollection", "features": [ {"type": "Feature", "properties": {"norad_id": 66919, "name": "HULIANWANG DIGUI-109", "group": "last-30-days", "lat": 37.94687065415966, "lon": -160.12287577474322, "alt_km": 882.5534594183819, "timestamp": "2025-12-26T14:28:46.397369+00:00", "meta": {"OBJECT_NAME": "HULIANWANG DIGUI-109", "OBJECT_ID": "2025-285E", "EPOCH": "2025-12-26T07:02:30.604992", "MEAN_MOTION": 14.03107457, "ECCENTRICITY": 0.00079638, "INCLINATION": 50.0063, "RA_OF_ASC_NODE": 62.0266, "ARG_OF_PERICENTER": 340.7911, "MEAN_ANOMALY": 19.2692, "EPHEMERIS_TYPE": 0, "CLASSIFICATION_TYPE": "U", "NORAD_CAT_ID": 66919, "ELEMENT_SET_NO": 999, "REV_AT_EPOCH": 281, "BSTAR": 0.00012944112, "MEAN_MOTION_DOT": 5.1e-07, "MEAN_MOTION_DDOT": 0}, "tle": {"line1": "1 66919U 25285E   25360.29340978  .00000051  00000+0  12944-3 0  9999", "line2": "2 66919  50.0063  62.0266 0007963 340.7911  19.2692 14.03107457  2811"}}, "geometry": {"type": "Point", "coordinates": [-160.12287577474322, 37.94687065415966]}}, {"type": "Feature", "properties": {"norad_id": 66920, "name": "HULIANWANG DIGUI-110", "group": "last-30-days", "lat": 35.84696161648933, "lon": -156.56062611505394, "alt_km": 881.7620075363757, "timestamp": "2025-12-26T14:28:46.397379+00:00", "meta": {"OBJECT_NAME": "HULIANWANG DIGUI-110", "OBJECT_ID": "2025-285F", "EPOCH": "2025-12-26T07:01:30.936288", "MEAN_MOTION": 14.03164877, "ECCENTRICITY": 0.00058765, "INCLINATION": 50.0126, "RA_OF_ASC_NODE": 62.028, "ARG_OF_PERICENTER": 336.1171, "MEAN_ANOMALY": 23.946, "EPHEMERIS_TYPE": 0, "CLASSIFICATION_TYPE": "U", "NORAD_CAT_ID": 66920, "ELEMENT_SET_NO": 999, "REV_AT_EPOCH": 281, "BSTAR": 0.00011251359, "MEAN_MOTION_DOT": 2.5e-07, "MEAN_MOTION_DDOT": 0}, "tle": {"line1": "1 66920U 25285F   25360.29271917  .00000025  00000+0  11251-3 0  9998", "line2": "2 66920  50.0126  62.0280 0005876 336.1171  23.9460 14.03164877  2811"}}, "geometry": {"type": "Point", "coordinates": [-156.56062611505394, 35.84696161648933]}}, {"type": "Feature", "properties": {"norad_id": 66921, "name": "HULIANWANG DIGUI-111", "group": "last-30-days", "lat": 33.51459241289707, "lon": -153.00687558109325, "alt_km": 882.0847126348708, "timestamp": "2025-12-26T14:28:46.397389+00:00", "meta": {"OBJECT_NAME": "HULIANWANG DIGUI-111", "OBJECT_ID": "2025-285G", "EPOCH": "2025-12-26T07:00:30.004416", "MEAN_MOTION": 14.03318134, "ECCENTRICITY": 0.00065369, "INCLINATION": 50.0127, "RA_OF_ASC_NODE": 62.0255, "ARG_OF_PERICENTER": 338.2303, "MEAN_ANOMALY": 21.8323, "EPHEMERIS_TYPE": 0, "CLASSIFICATION_TYPE": "U", "NORAD_CAT_ID": 66921, "ELEMENT_SET_NO": 999, "REV_AT_EPOCH": 281, "BSTAR": 0.00011333607, "MEAN_MOTION_DOT": 2.7e-07, "MEAN_MOTION_DDOT": 0}, "tle": {"line1": "1 66921U 25285G   25360.29201394  .00000027  00000+0  11334-3 0  9995", "line2": "2 66921  50.0127  62.0255 0006536 338.2303  21.8323 14.03318134  2811"}}, "geometry": {"type": "Point", "coordinates": [-153.00687558109325, 33.51459241289707]}}, {"type": "Feature", "properties": {"norad_id": 66922, "name": "HULIANWANG DIGUI-112", "group": "last-30-days", "lat": 29.609580493765737, "lon": -147.75009669355555, "alt_km": 882.0425527458583, "timestamp": "2025-12-26T14:28:46.397404+00:00", "meta": {"OBJECT_NAME": "HULIANWANG DIGUI-112", "OBJECT_ID": "2025-285H", "EPOCH": "2025-12-26T06:58:51.098880", "MEAN_MOTION": 14.03439556, "ECCENTRICITY": 0.00065558, "INCLINATION": 50.0101, "RA_OF_ASC_NODE": 62.0108, "ARG_OF_PERICENTER": 350.5347, "MEAN_ANOMALY": 9.5433, "EPHEMERIS_TYPE": 0, "CLASSIFICATION_TYPE": "U", "NORAD_CAT_ID": 66922, "ELEMENT_SET_NO": 999, "REV_AT_EPOCH": 281, "BSTAR": 0.00011659833, "MEAN_MOTION_DOT": 3.2e-07, "MEAN_MOTION_DDOT": 0}, "tle": {"line1": "1 66922U 25285H   25360.29086920  .00000032  00000+0  11660-3 0  9990", "line2": "2 66922  50.0101  62.0108 0006555 350.5347   9.5433 14.03439556  2814"}}, "geometry": {"type": "Point", "coordinates": [-147.75009669355555, 29.609580493765737]}}, {"type": "Feature", "properties": {"norad_id": 66923, "name": "HULIANWANG DIGUI-113", "group": "last-30-days", "lat": 25.055498041331642, "lon": -142.3745347488766, "alt_km": 881.7561841757888, "timestamp": "2025-12-26T14:28:46.397421+00:00", "meta": {"OBJECT_NAME": "HULIANWANG DIGUI-113", "OBJECT_ID": "2025-285J", "EPOCH": "2025-12-26T06:57:00.122400", "MEAN_MOTION": 14.03554978, "ECCENTRICITY": 0.00049549, "INCLINATION": 50.0099, "RA_OF_ASC_NODE": 62.0054, "ARG_OF_PERICENTER": 342.7525, "MEAN_ANOMALY": 17.321, "EPHEMERIS_TYPE": 0, "CLASSIFICATION_TYPE": "U", "NORAD_CAT_ID": 66923, "ELEMENT_SET_NO": 999, "REV_AT_EPOCH": 281, "BSTAR": 0.00023913849, "MEAN_MOTION_DOT": 2.26e-06, "MEAN_MOTION_DDOT": 0}, "tle": {"line1": "1 66923U 25285J   25360.28958475  .00000226  00000+0  23914-3 0  9993", "line2": "2 66923  50.0099  62.0054 0004954 342.7525  17.3210 14.03554978  2819"}}, "geometry": {"type": "Point", "coordinates": [-142.3745347488766, 25.055498041331642]}}, {"type": "Feature", "properties": {"norad_id": 66924, "name": "CZ-8A R/B", "group": "last-30-days", "lat": -23.02267643222474, "lon": -101.96279088058944, "alt_km": 743.3321661866594, "timestamp": "2025-12-26T14:28:46.397431+00:00", "meta": {"OBJECT_NAME": "CZ-8A R/B", "OBJECT_ID": "2025-285K", "EPOCH": "2025-12-25T10:40:55.363008", "MEAN_MOTION": 14.30506687, "ECCENTRICITY": 0.0119239, "INCLINATION": 50.0085, "RA_OF_ASC_NODE": 62.0719, "ARG_OF_PERICENTER": 151.535, "MEAN_ANOMALY": 209.2146, "EPHEMERIS_TYPE": 0, "CLASSIFICATION_TYPE": "U", "NORAD_CAT_ID": 66924, "ELEMENT_SET_NO": 999, "REV_AT_EPOCH": 274, "BSTAR": 6.6135e-05, "MEAN_MOTION_DOT": 2.1e-07, "MEAN_MOTION_DDOT": 0}, "tle": {"line1": "1 66924U 25285K   25359.44508522  .00000021  00000+0  66135-4 0  9990", "line2": "2 66924  50.0085  62.0719 0119239 151.5350 209.2146 14.30506687  2744"}}, "geometry": {"type": "Point", "coordinates": [-101.96279088058944, -23.02267643222474]}}, {"type": "Feature", "properties": {"norad_id": 66925, "name": "STARLINK-35945", "group": "last-30-days", "lat": 31.65589240308752, "lon": 133.90870071489005, "alt_km": 392.26219921696065, "timestamp": "2025-12-26T14:28:46.397442+00:00", "meta": {"OBJECT_NAME": "STARLINK-35945", "OBJECT_ID": "2025-286A", "EPOCH": "2025-12-26T06:00:02.999808", "MEAN_MOTION": 15.58413126, "ECCENTRICITY": 0.00012494, "INCLINATION": 53.159, "RA_OF_ASC_NODE": 343.1526, "ARG_OF_PERICENTER": 89.4561, "MEAN_ANOMALY": 227.3186, "EPHEMERIS_TYPE": 0, "CLASSIFICATION_TYPE": "U", "NORAD_CAT_ID": 66925, "ELEMENT_SET_NO": 999, "REV_AT_EPOCH": 416, "BSTAR": -0.029024378, "MEAN_MOTION_DOT": -0.01977061, "MEAN_MOTION_DDOT": 0}, "tle": {"line1": "1 66925U 25286A   25360.25003472 -.01977061  00000+0 -29024-1 0  9990", "line2": "2 66925  53.1590 343.1526 0001249  89.4561 227.3186 15.58413126  4162"}}, "geometry": {"type": "Point", "coordinates": [133.90870071489005, 31.65589240308752]}}, {"type": "Feature", "properties": {"norad_id": 66926, "name": "STARLINK-35942", "group": "last-30-days", "lat": 46.15376615979155, "lon": 110.17595902792799, "alt_km": 395.2477307462241, "timestamp": "2025-12-26T14:28:46.397453+00:00", "meta": {"OBJECT_NAME": "STARLINK-35942", "OBJECT_ID": "2025-286B", "EPOCH": "2025-12-26T06:00:02.999808", "MEAN_MOTION": 15.56509977, "ECCENTRICITY": 0.00014726, "INCLINATION": 53.1589, "RA_OF_ASC_NODE": 343.1951, "ARG_OF_PERICENTER": 90.1321, "MEAN_ANOMALY": 205.7741, "EPHEMERIS_TYPE": 0, "CLASSIFICATION_TYPE": "U", "NORAD_CAT_ID": 66926, "ELEMENT_SET_NO": 999, "REV_AT_EPOCH": 416, "BSTAR": -0.031903772, "MEAN_MOTION_DOT": -0.02055121, "MEAN_MOTION_DDOT": 0}, "tle": {"line1": "1 66926U 25286B   25360.25003472 -.02055121  00000+0 -31904-1 0  9996", "line2": "2 66926  53.1589 343.1951 0001472  90.1321 205.7741 15.56509977  4169"}}, "geometry": {"type": "Point", "coordinates": [110.17595902792799, 46.15376615979155]}}, {"type": "Feature", "properties": {"norad_id": 66927, "name": "STARLINK-35943", "group": "last-30-days", "lat": 45.16831133434143, "lon": 112.53134056762845, "alt_km": 395.47560196476206, "timestamp": "2025-12-26T14:28:46.397463+00:00", "meta": {"OBJECT_NAME": "STARLINK-35943", "OBJECT_ID": "2025-286C", "EPOCH": "2025-12-26T06:00:02.999808", "MEAN_MOTION": 15.56513792, "ECCENTRICITY": 0.000136, "INCLINATION": 53.1588, "RA_OF_ASC_NODE": 343.1906, "ARG_OF_PERICENTER": 92.2426, "MEAN_ANOMALY": 205.5813, "EPHEMERIS_TYPE": 0, "CLASSIFICATION_TYPE": "U", "NORAD_CAT_ID": 66927, "ELEMENT_SET_NO": 999, "REV_AT_EPOCH": 416, "BSTAR": -0.032021949, "MEAN_MOTION_DOT": -0.02062105, "MEAN_MOTION_DDOT": 0}, "tle": {"line1": "1 66927U 25286C   25360.25003472 -.02062105  00000+0 -32022-1 0  9999", "line2": "2 66927  53.1588 343.1906 0001360  92.2426 205.5813 15.56513792  4162"}}, "geometry": {"type": "Point", "coordinates": [112.53134056762845, 45.16831133434143]}}, {"type": "Feature", "properties": {"norad_id": 66928, "name": "STARLINK-35944", "group": "last-30-days", "lat": 47.087725445034, "lon": 107.73911582656594, "alt_km": 395.19310439642504, "timestamp": "2025-12-26T14:28:46.397474+00:00", "meta": {"OBJECT_NAME": "STARLINK-35944", "OBJECT_ID": "2025-286D", "EPOCH": "2025-12-26T06:00:02.999808", "MEAN_MOTION": 15.5651629, "ECCENTRICITY": 0.0001352, "INCLINATION": 53.1593, "RA_OF_ASC_NODE": 343.1978, "ARG_OF_PERICENTER": 89.4039, "MEAN_ANOMALY": 204.587, "EPHEMERIS_TYPE": 0, "CLASSIFICATION_TYPE": "U", "NORAD_CAT_ID": 66928, "ELEMENT_SET_NO": 999, "REV_AT_EPOCH": 416, "BSTAR": -0.032123643, "MEAN_MOTION_DOT": -0.02068114, "MEAN_MOTION_DDOT": 0}, "tle": {"line1": "1 66928U 25286D   25360.25003472 -.02068114  00000+0 -32124-1 0  9999", "line2": "2 66928  53.1593 343.1978 0001352  89.4039 204.5870 15.56516290  4165"}}, "geometry": {"type": "Point", "coordinates": [107.73911582656594, 47.087725445034]}}]}